SB KEPS @ AMSAT  $ORB11034.N
2Line Orbital Elements 11034.AMSAT

HR AMSAT ORBITAL ELEMENTS FOR AMATEUR SATELLITES IN NASA FORMAT
FROM WA5QGD FORT WORTH,TX February 3, 2011
Send Subscribe/unsubscribe to KEPS at http://www.amsat.org/mailman/listinfo/keps
BID: ORB11034.N

DECODE 2-LINE ELSETS WITH THE FOLLOWING KEY:
1 AAAAAU 00  0  0 BBBBB.BBBBBBBB  .CCCCCCCC  00000-0  00000-0 0  DDDZ
2 AAAAA EEE.EEEE FFF.FFFF GGGGGGG HHH.HHHH III.IIII JJ.JJJJJJJJKKKKKZ
KEY: A-CATALOGNUM B-EPOCHTIME C-DECAY D-ELSETNUM E-INCLINATION F-RAAN
G-ECCENTRICITY H-ARGPERIGEE I-MNANOM J-MNMOTION K-ORBITNUM Z-CHECKSUM

TO ALL RADIO AMATEURS BT

AO-07
1 07530U 74089B   11034.64058427 -.00000027  00000-0  10000-3 0  9958
2 07530 101.3954 046.4472 0011710 180.5526 179.5534 12.53580959657452
FO-29
1 24278U 96046B   11034.49865149  .00000041  00000-0  80588-4 0  4996
2 24278 098.5238 196.7771 0349858 243.7677 112.7107 13.52957339714380
SO-33
1 25509U 98061B   11034.74440838  .00000212  00000-0  29482-4 0  8962
2 25509 031.4331 279.0310 0353824 154.7432 207.0920 14.28364777641180
RS-22
1 27939U 03042A   11034.63175773  .00000106  00000-0  28997-4 0  9577
2 27939 097.8626 254.8808 0014588 049.9520 310.2952 14.63505740392809
VO-52
1 28650U 05017B   11034.47626988 -.00000063  00000-0 -14897-5 0  7097
2 28650 097.6616 083.4821 0025859 238.4949 121.3738 14.81899194310948
SO-67
1 35870U 09049F   11034.74801853  .00000535  00000-0  26882-4 0  5281
2 35870 097.3015 082.3616 0003688 031.4626 104.0960 15.21315104 76650
HO-68
1 36122U 09072B   11034.76874753 -.00000045  00000-0  00000 0 0   796
2 36122 100.4359 097.5095 0007706 166.0966 194.0353 13.16283796 54681
UO-11
1 14781U 84021B   11033.65931356  .00000381  00000-0  57488-4 0 04625
2 14781 098.0241 090.6761 0008469 207.8674 152.2098 14.79885663445891
AO-16
1 20439U 90005D   11034.76650161  .00000013  00000-0  20374-4 0  1090
2 20439 098.3661 348.9654 0010433 195.5838 164.5029 14.31893663 98527
LO-19
1 20442U 90005G   11034.79715182  .00000009  00000-0  18769-4 0   170
2 20442 098.3282 353.8672 0011675 188.8382 171.2608 14.32121678 98702
AO-27
1 22825U 93061C   11033.39557180 -.00000068  00000-0 -98385-5 0 07413
2 22825 098.5154 340.7373 0008020 317.0680 042.9865 14.29324762904934
IO-26
1 22826U 93061D   11034.81938939 -.00000000  00000-0  16636-4 0  4787
2 22826 098.5100 342.6480 0008417 307.6973 052.3452 14.29584371905253
GO-32
1 25397U 98043D   11034.61532579 -.00000004  00000-0  16152-4 0  3984
2 25397 098.3183 034.3711 0000976 357.2324 002.8865 14.23195459652967
NO-44
1 26931U 01043C   11033.93130491 -.00000295  00000-0 -82836-4 0 06724
2 26931 067.0546 329.4590 0006964 270.6775 089.3524 14.29630506487738
SO-50
1 27607U 02058C   11033.45174328 -.00000004  00000-0  21228-4 0 03829
2 27607 064.5588 017.0516 0057670 353.1850 006.8475 14.71636410436264
CO-55
1 27844U 03031E   11034.58432524  .00000046  00000-0  41371-4 0   377
2 27844 098.7084 045.2202 0009121 222.1556 137.8914 14.20765172393940
CO-57
1 27848U 03031J   11033.52118630  .00000022  00000-0  30425-4 0  9835
2 27848 098.7139 043.3195 0009112 229.9931 130.0451 14.20550644393742
AO-51
1 28375U 04025K   11034.90735998  .00000024  00000-0  19612-4 0  8870
2 28375 098.0823 020.4681 0084515 113.6413 247.3674 14.40722014346876
CP3
1 31129U 07012N   11033.88060077 -.00000029  00000-0  41148-5 0 07904
2 31129 097.9133 065.7774 0101364 237.7858 121.3435 14.52369160201347
CO-65
1 32785U 08021C   11034.72332092 -.00000051  00000-0  27824-6 0  9056
2 32785 097.8671 101.0805 0013820 250.1768 109.7958 14.81816180149778
KKS-1
1 33493U 09002B   11034.76953689  .00000443  00000-0  63659-4 0  2767
2 33493 098.1063 161.6311 0021041 111.5676 248.7788 14.81303621109761
SOHLA-1
1 33496U 09002E   11034.80358071 -.00000041  00000-0  14064-5 0  3245
2 33496 098.0686 146.0902 0006602 178.6219 181.5017 14.69551803108895
TISAT-1
1 36799U 10035E   11034.78453067  .00000253  00000-0  40397-4 0  5502
2 36799 098.1191 101.6421 0015259 352.7711 007.3267 14.80302866 30576
STUDSAT
1 36801U 10035G   11033.76736081  .00000703  00000-0  10012-3 0 01341
2 36801 098.1248 100.4729 0013824 344.0181 016.0590 14.79973531030412
RAX
1 37223U 0        11032.44671713  .00000206  00000-0  36841-4 0 00701
2 37223 071.9746 338.3080 0021458 184.2321 175.8663 14.77226199010846
OOREOS
1 37224U 10062C   11031.44731873  .00000123  00000-0  25362-4 0 00719
2 37224 071.9747 340.6006 0020047 184.3247 175.7744 14.76886093010688
NANOSALD
1 37225U 0        11029.15737677  .00020319  00000-0  28461-2 0 00141
2 37225 071.9741 345.7226 0018614 180.5975 179.5130 14.77379680001452
FAST1-2
1 37227U 0        11034.45260292  .00000079  00000-0  19401-4 0 00682
2 37227 071.9744 334.0929 0017316 175.6076 184.5273 14.76388212011122
NOAA-10
1 16969U 86073A   11034.11866538  .00000057  00000-0  41240-4 0  3825
2 16969 098.6343 065.6363 0011498 256.7219 103.2702 14.27442654268527
NOAA-11
1 19531U 88089A   11034.26538451 -.00000110  00000-0 -34590-4 0  3886
2 19531 098.7573 124.2514 0010789 206.8412 153.2197 14.14902258153819
NOAA-12
1 21263U 91032A   11034.46252325  .00000029  00000-0  30885-4 0  8816
2 21263 098.7576 052.4989 0011842 212.4418 147.6041 14.25681247 25351
MET-3/5
1 21655U 91056A   11034.65708551  .00000051  00000-0  10000-3 0   289
2 21655 082.5597 145.1157 0014496 127.9088 232.3389 13.17026299936143
MET-2/21
1 22782U 93055A   11034.62204222  .00000060  00000-0  40897-4 0    81
2 22782 082.5449 068.8528 0023894 111.9511 248.4201 13.83652153880089
OKEAN-4
1 23317U 94066A   11034.77181538  .00000142  00000-0  14516-4 0  4645
2 23317 082.5424 137.7032 0021625 194.6972 165.3642 14.82931946880774
NOAA-14
1 23455U 94089A   11034.42158173 -.00000120  00000-0 -39900-4 0  3689
2 23455 098.8595 118.3552 0008802 303.2912 056.7440 14.13804111830177
NOAA-15
1 25338U 98030A   11034.46596466 -.00000000  00000-0  18470-4 0  6954
2 25338 098.6428 022.5270 0011398 118.8681 241.3631 14.24881227661689
RESURS
1 25394U 98043A   11033.64191603 -.00000014  00000-0  11390-4 0 07155
2 25394 098.2994 044.0792 0000602 296.4471 063.6653 14.24222324653158
FENGYUN1
1 25730U 99025A   11034.48599557 -.00000259  00000-0  00000 0 0  2497
2 25730 098.8042 358.6968 0022500 329.5195 030.5136 14.08487554604248
OKEAN-0
1 25860U 99039A   11033.93277765  .00000070  00000-0  18098-4 0 02210
2 25860 097.8649 004.2162 0001893 068.5598 291.5806 14.73705861620880
NOAA-16
1 26536U 00055A   11034.49135756  .00000181  00000-0  12276-3 0  1758
2 26536 099.1551 062.2313 0011037 051.4180 308.8022 14.12595929534486
NOAA-17
1 27453U 02032A   11034.48639673  .00000163  00000-0  88483-4 0  1721
2 27453 098.3999 080.2222 0011843 176.2599 183.8671 14.24233316447628
NOAA-18
1 28654U 05018A   11034.33438001  .00000334  00000-0  20869-3 0  6579
2 28654 098.9799 345.2687 0014973 120.0957 240.1698 14.11434211294042
NOAA-19
1 33591U 09005A   11034.30204003  .00000138  00000-0  10056-3 0  8509
2 33591 098.8145 336.7972 0014327 358.7705 001.3431 14.11127267102509
HUBBLE
1 20580U 90037B   11032.56653249  .00000423  00000-0  19462-4 0  7084
2 20580 028.4690 182.2247 0003378 123.6925 236.4065 15.01149434939257
ISS
1 25544U 98067A   11034.83945877  .00018784  00000-0  14274-3 0  7649
2 25544 051.6455 124.6609 0003537 271.6432 188.8970 15.72349970699911
CO-58
1 28895U 05043F   11033.60671841  .00000232  00000-0  57608-4 0 07912
2 28895 097.9876 275.0470 0016914 285.4289 074.5040 14.60001761280606
FALCON
1 30776U 07006E   11034.51352051  .00000573  00000-0  43552-4 0   143
2 30776 035.4326 079.4249 0001322 359.0701 001.0013 15.04089396214902
MAST
1 31126U 07012K   11033.74753255 -.00000004  00000-0  96649-5 0 00769
2 31126 097.9112 068.4811 0093740 228.6628 130.6475 14.53668296201558
CAPE1
1 31130U 07012P   11034.64054047  .00000080  00000-0  29078-4 0   952
2 31130 097.9122 066.3002 0101819 235.6055 123.5479 14.52285571201254
COMPASS
1 32787U 08021E   11034.75379499  .00000777  00000-0  10417-3 0  9009
2 32787 097.8650 100.9817 0014682 249.7179 110.2448 14.82128135149795
AAUSAT2
1 32788U 08021F   11034.66570646  .00000358  00000-0  51370-4 0  8881
2 32788 097.8659 101.0795 0014603 252.1817 107.7811 14.82287508149797
DO-64
1 32789U 08021G   11033.76429568  .00000923  00000-0  12113-3 0 09068
2 32789 097.8747 100.9673 0014544 252.0872 107.8750 14.82571621149664
CO-66
1 32791U 08021J   11034.74497573  .00000592  00000-0  81366-4 0  8902
2 32791 097.8657 100.9497 0015020 248.8748 111.0854 14.81870645149744
RS-30
1 32953U 08025A   11034.69672127  .00000010  00000-0  00000 0 0  4384
2 32953 082.4978 245.7142 0018633 320.1622 039.8091 12.43010473122509
TACSAT-3
1 35001U 09028A   11034.86128549  .00004961  00000-0  10798-3 0  4959
2 35001 040.4551 259.6741 0024299 298.2766 061.5606 15.44638965 96437
PHARMSAT
1 35002U 09028B   11033.85276349  .00004337  00000-0  94248-4 0  4613
2 35002 040.4692 263.2408 0026336 295.1619 064.6475 15.44848942 96304
HAWKSAT1
1 35003U 09028C   11034.81370514  .00013391  00000-0  22119-3 0  5023
2 35003 040.4591 242.2735 0025262 326.0749 033.8506 15.51565422 96623
CP6
1 35004U 09028D   11033.95327067  .00015451  00000-0  23508-3 0 05058
2 35004 040.4596 243.5751 0024663 326.0330 033.8908 15.53771340096526
AEROCUB3
1 35005U 09028E   11006.09222617  .14049365  73043-5  82692-3 0  6103
2 35005 040.4461 021.7975 0025578 084.1677 280.7191 16.39196088 92544
METEOR-M
1 35865U 09049A   11034.72716586  .00000176  00000-0  10000-3 0   674
2 35865 098.7262 091.4727 0003318 059.2730 300.8728 14.21834242 71629
RS-38
1 35869U 09049E   11034.74317497  .00000177  00000-0  10000-3 0   815
2 35869 098.7246 091.5302 0005481 059.4591 300.7100 14.21999183 71635
/EX
